$$SOE
2460728.500000000, A.D. 2025-Feb-22 00:00:00.0000, 1.335716554005315E+06, 5.189976415887496E+08, -1.033231815344843E+07,
2460735.500000000, A.D. 2025-Mar-01 00:00:00.0000, -7.844964086792883E+06, 5.199058834143438E+08, -9.969443434808701E+06,
2460742.500000000, A.D. 2025-Mar-08 00:00:00.0000, -1.702267016087838E+07, 5.206352480847507E+08, -9.603115018814474E+06,
2460749.500000000, A.D. 2025-Mar-15 00:00:00.0000, -2.619426131871673E+07, 5.211864522967553E+08, -9.233478248663485E+06,
2460756.500000000, A.D. 2025-Mar-22 00:00:00.0000, -3.535663382930446E+07, 5.215602533961016E+08, -8.860677547014892E+06,
2460763.500000000, A.D. 2025-Mar-29 00:00:00.0000, -4.450672116302102E+07, 5.217574464590935E+08, -8.484856466979712E+06,
2460770.500000000, A.D. 2025-Apr-05 00:00:00.0000, -5.364149286061335E+07, 5.217788623002894E+08, -8.106157827251166E+06,
2460777.500000000, A.D. 2025-Apr-12 00:00:00.0000, -6.275795361540980E+07, 5.216253665099607E+08, -7.724723746558368E+06,
2460784.500000000, A.D. 2025-Apr-19 00:00:00.0000, -7.185314275751472E+07, 5.212978586387087E+08, -7.340695632476628E+06,
2460791.500000000, A.D. 2025-Apr-26 00:00:00.0000, -8.092413387018023E+07, 5.207972713253358E+08, -6.954214166252285E+06,
2460798.500000000, A.D. 2025-May-03 00:00:00.0000, -8.996803442643505E+07, 5.201245693866065E+08, -6.565419292636663E+06,
2460805.500000000, A.D. 2025-May-10 00:00:00.0000, -9.898198541899428E+07, 5.192807488770999E+08, -6.174450216748804E+06,
2460812.500000000, A.D. 2025-May-17 00:00:00.0000, -1.079631609482263E+08, 5.182668360776269E+08, -5.781445414748788E+06,
2460819.500000000, A.D. 2025-May-24 00:00:00.0000, -1.169087675957209E+08, 5.170838863571945E+08, -5.386542678735316E+06,
2460826.500000000, A.D. 2025-May-31 00:00:00.0000, -1.258160431672194E+08, 5.157329832190294E+08, -4.989879208748877E+06,
2460833.500000000, A.D. 2025-Jun-07 00:00:00.0000, -1.346822552073842E+08, 5.142152387355098E+08, -4.591591616644919E+06,
2460840.500000000, A.D. 2025-Jun-14 00:00:00.0000, -1.435047016516465E+08, 5.125317947052664E+08, -4.191815679483712E+06,
2460847.500000000, A.D. 2025-Jun-21 00:00:00.0000, -1.522807123986826E+08, 5.106838212592794E+08, -3.790686221199214E+06,
2460854.500000000, A.D. 2025-Jun-28 00:00:00.0000, -1.610076486773567E+08, 5.086725146792631E+08, -3.388337265015781E+06,
2460861.500000000, A.D. 2025-Jul-05 00:00:00.0000, -1.696829017265275E+08, 5.064990965856047E+08, -2.984902141268849E+06,
2460868.500000000, A.D. 2025-Jul-12 00:00:00.0000, -1.783038919791960E+08, 5.041648136895086E+08, -2.580513507159233E+06,
2460875.500000000, A.D. 2025-Jul-19 00:00:00.0000, -1.868680685620834E+08, 5.016709375334467E+08, -2.175303342675030E+06,
2460882.500000000, A.D. 2025-Jul-26 00:00:00.0000, -1.953729089016260E+08, 4.990187641626435E+08, -1.769402946389139E+06,
2460889.500000000, A.D. 2025-Aug-02 00:00:00.0000, -2.038159183719343E+08, 4.962096137487677E+08, -1.362942935189933E+06,
2460896.500000000, A.D. 2025-Aug-09 00:00:00.0000, -2.121946299621736E+08, 4.932448301508511E+08, -9.560532510907650E+05,
2460903.500000000, A.D. 2025-Aug-16 00:00:00.0000, -2.205066038872567E+08, 4.901257803499456E+08, -5.488631871166229E+05,
2460910.500000000, A.D. 2025-Aug-23 00:00:00.0000, -2.287494268500530E+08, 4.868538537737536E+08, -1.415014574961364E+05,
2460917.500000000, A.D. 2025-Aug-30 00:00:00.0000, -2.369207106271365E+08, 4.834304622251694E+08, 2.659037162938714E+05,
2460924.500000000, A.D. 2025-Sep-06 00:00:00.0000, -2.450180913971568E+08, 4.798570414155042E+08, 6.732247156735361E+05,
2460931.500000000, A.D. 2025-Sep-13 00:00:00.0000, -2.530392314823465E+08, 4.761350516199153E+08, 1.080334781843036E+06,
2460938.500000000, A.D. 2025-Sep-20 00:00:00.0000, -2.609818202290873E+08, 4.722659758089079E+08, 1.487107985192448E+06,
2460945.500000000, A.D. 2025-Sep-27 00:00:00.0000, -2.688435729697614E+08, 4.682513183659555E+08, 1.893419064774811E+06,
2460952.500000000, A.D. 2025-Oct-04 00:00:00.0000, -2.766222300833082E+08, 4.640926049303210E+08, 2.299143367032647E+06,
2460959.500000000, A.D. 2025-Oct-11 00:00:00.0000, -2.843155565283400E+08, 4.597913824212502E+08, 2.704156841136932E+06,
2460966.500000000, A.D. 2025-Oct-18 00:00:00.0000, -2.919213415659656E+08, 4.553492189681515E+08, 3.108336042632520E+06,
2460973.500000000, A.D. 2025-Oct-25 00:00:00.0000, -2.994373985340693E+08, 4.507677037575995E+08, 3.511558133513659E+06,
2460980.500000000, A.D. 2025-Nov-01 00:00:00.0000, -3.068615646347553E+08, 4.460484468132186E+08, 3.913700876292050E+06,
2460987.500000000, A.D. 2025-Nov-08 00:00:00.0000, -3.141917007011126E+08, 4.411930786778025E+08, 4.314642616163850E+06,
2460994.500000000, A.D. 2025-Nov-15 00:00:00.0000, -3.214256907957490E+08, 4.362032499396471E+08, 4.714262232737660E+06,
2461001.500000000, A.D. 2025-Nov-22 00:00:00.0000, -3.285614412385966E+08, 4.310806308232963E+08, 5.112439042187124E+06,
2461008.500000000, A.D. 2025-Nov-29 00:00:00.0000, -3.355968792176926E+08, 4.258269119796323E+08, 5.509052756444961E+06,
2461015.500000000, A.D. 2025-Dec-06 00:00:00.0000, -3.425299532611372E+08, 4.204438063397830E+08, 5.903983696986288E+06,
2461022.500000000, A.D. 2025-Dec-13 00:00:00.0000, -3.493586351362756E+08, 4.149330486628214E+08, 6.297112947845012E+06,
2461029.500000000, A.D. 2025-Dec-20 00:00:00.0000, -3.560809196823692E+08, 4.092963937990327E+08, 6.688322211111724E+06,
2461036.500000000, A.D. 2025-Dec-27 00:00:00.0000, -3.626948236517819E+08, 4.035356162594742E+08, 7.077493675157607E+06,
2461043.500000000, A.D. 2026-Jan-03 00:00:00.0000, -3.691983850199416E+08, 3.976525104772398E+08, 7.464509979056239E+06,
2461050.500000000, A.D. 2026-Jan-10 00:00:00.0000, -3.755896626544285E+08, 3.916488910822343E+08, 7.849254207702905E+06,
2461057.500000000, A.D. 2026-Jan-17 00:00:00.0000, -3.818667361106566E+08, 3.855265930982649E+08, 8.231609888930887E+06,
2461064.500000000, A.D. 2026-Jan-24 00:00:00.0000, -3.880277054763263E+08, 3.792874720855032E+08, 8.611460987458825E+06,
2461071.500000000, A.D. 2026-Jan-31 00:00:00.0000, -3.940706912413110E+08, 3.729334042213266E+08, 8.988691893041223E+06,
2461078.500000000, A.D. 2026-Feb-07 00:00:00.0000, -3.999938341315588E+08, 3.664662862625353E+08, 9.363187392623901E+06,
2461085.500000000, A.D. 2026-Feb-14 00:00:00.0000, -4.057952946540761E+08, 3.598880353737946E+08, 9.734832602165818E+06,
2461092.500000000, A.D. 2026-Feb-21 00:00:00.0000, -4.114732519657571E+08, 3.532005893992609E+08, 1.010351286986087E+07,
2461099.500000000, A.D. 2026-Feb-28 00:00:00.0000, -4.170259031518429E+08, 3.464059087307823E+08, 1.046911384461580E+07,
2461106.500000000, A.D. 2026-Mar-07 00:00:00.0000, -4.224514649738590E+08, 3.395059778232748E+08, 1.083152173928396E+07,
2461113.500000000, A.D. 2026-Mar-14 00:00:00.0000, -4.277481753113256E+08, 3.325028040248517E+08, 1.119062334356834E+07,
2461120.500000000, A.D. 2026-Mar-21 00:00:00.0000, -4.329142925141502E+08, 3.253984166185006E+08, 1.154630586012352E+07,
2461127.500000000, A.D. 2026-Mar-28 00:00:00.0000, -4.379480946765416E+08, 3.181948671034113E+08, 1.189845683236609E+07,
2461134.500000000, A.D. 2026-Apr-04 00:00:00.0000, -4.428478794374189E+08, 3.108942297508094E+08, 1.224696414059222E+07,
2461141.500000000, A.D. 2026-Apr-11 00:00:00.0000, -4.476119640338209E+08, 3.034986020745074E+08, 1.259171601207985E+07,
2461148.500000000, A.D. 2026-Apr-18 00:00:00.0000, -4.522386854482685E+08, 2.960101052092224E+08, 1.293260103026396E+07,
2461155.500000000, A.D. 2026-Apr-25 00:00:00.0000, -4.567264006045152E+08, 2.884308842110286E+08, 1.326950814022209E+07,
2461162.500000000, A.D. 2026-May-02 00:00:00.0000, -4.610734865812470E+08, 2.807631082500604E+08, 1.360232664545512E+07,
2461169.500000000, A.D. 2026-May-09 00:00:00.0000, -4.652783407192643E+08, 2.730089706290721E+08, 1.393094617931624E+07,
2461176.500000000, A.D. 2026-May-16 00:00:00.0000, -4.693393802441048E+08, 2.651706887660272E+08, 1.425525662788361E+07,
2461183.500000000, A.D. 2026-May-23 00:00:00.0000, -4.732550413520185E+08, 2.572505051627026E+08, 1.457514808317365E+07,
2461190.500000000, A.D. 2026-May-30 00:00:00.0000, -4.770237798378674E+08, 2.492506896783433E+08, 1.489051104345079E+07,
2461197.500000000, A.D. 2026-Jun-06 00:00:00.0000, -4.806440735825856E+08, 2.411735398346315E+08, 1.520123662214760E+07,
2461204.500000000, A.D. 2026-Jun-13 00:00:00.0000, -4.841144232334036E+08, 2.330213793501158E+08, 1.550721644537474E+07,
2461211.500000000, A.D. 2026-Jun-20 00:00:00.0000, -4.874333515777326E+08, 2.247965578280646E+08, 1.580834252298844E+07,
2461218.500000000, A.D. 2026-Jun-27 00:00:00.0000, -4.905994033112096E+08, 2.165014512566216E+08, 1.610450722096230E+07,
2461225.500000000, A.D. 2026-Jul-04 00:00:00.0000, -4.936111452022702E+08, 2.081384625465603E+08, 1.639560327147658E+07,
2461232.500000000, A.D. 2026-Jul-11 00:00:00.0000, -4.964671664006592E+08, 1.997100219751484E+08, 1.668152378642082E+07,
2461239.500000000, A.D. 2026-Jul-18 00:00:00.0000, -4.991660787979257E+08, 1.912185875619914E+08, 1.696216226769473E+07,
2461246.500000000, A.D. 2026-Jul-25 00:00:00.0000, -5.017065174159978E+08, 1.826666453793988E+08, 1.723741261210499E+07,
2461253.500000000, A.D. 2026-Aug-01 00:00:00.0000, -5.040871407762043E+08, 1.740567097487421E+08, 1.750716910236794E+07,
2461260.500000000, A.D. 2026-Aug-08 00:00:00.0000, -5.063066310343342E+08, 1.653913232863472E+08, 1.777132636148148E+07,
2461267.500000000, A.D. 2026-Aug-15 00:00:00.0000, -5.083636934671570E+08, 1.566730572485929E+08, 1.802977926915857E+07,
2461274.500000000, A.D. 2026-Aug-22 00:00:00.0000, -5.102570560721458E+08, 1.479045133965655E+08, 1.828242300991312E+07,
2461281.500000000, A.D. 2026-Aug-29 00:00:00.0000, -5.119854715710546E+08, 1.390883260067120E+08, 1.852915335055391E+07,
2461288.500000000, A.D. 2026-Sep-05 00:00:00.0000, -5.135477196853827E+08, 1.302271611593867E+08, 1.876986671705813E+07,
2461295.500000000, A.D. 2026-Sep-12 00:00:00.0000, -5.149426072286934E+08, 1.213237158007000E+08, 1.900446004975289E+07,
$$EOE